EUTELSAT 8 WEST B       
1 40875U 15039B   26001.60463117 -.00000055  00000+0  00000+0 0  9998
2 40875   0.0641 350.2282 0004123 290.3746  30.3222  1.00271607 37983
EUTELSAT 9B             
1 41310U 16005A   26001.60801118  .00000072  00000+0  00000+0 0  9992
2 41310   0.0443  63.6493 0005008 215.8627  49.6076  1.00271457 36443
EUTELSAT 65 WEST A      
1 41382U 16014A   26001.45061830 -.00000264  00000+0  00000+0 0  9997
2 41382   0.0730 311.2427 0002678 333.7044 273.1620  1.00268360 35866
EUTELSAT 117 WEST B     
1 41589U 16038B   26001.48655590 -.00000001  00000+0  00000+0 0  9996
2 41589   0.0088 151.2831 0000446 255.9357 112.0981  1.00274404 34995
EUTELSAT 172B           
1 42741U 17029B   26001.58586631  .00000005  00000+0  00000+0 0  9991
2 42741   0.0351 129.5963 0000240 127.6767 226.8583  1.00270520 32068
EUTELSAT 7C             
1 44334U 19034B   26001.60766451  .00000059  00000+0  00000+0 0  9991
2 44334   0.0744 179.5158 0003549  86.6316  60.8368  1.00270360  5164
EUTELSAT 5 WEST B       
1 44624U 19067A   26001.60523784 -.00000031  00000+0  00000+0 0  9990
2 44624   0.0773 323.4907 0003466 315.9204  34.7215  1.00270514 22769
EUTELSAT KONNECT        
1 45027U 20005B   26001.60766451  .00000060  00000+0  00000+0 0  9993
2 45027   0.0707  93.4412 0001856 184.5158  49.2453  1.00268981 22667
